{
  "type": "FeatureCollection",
  "features": [
    {
      "type": "Feature",
      "properties": {
        "norad_id": 39160,
        "name": "VNREDSAT 1",
        "group": "resource",
        "lat": -70.51339304519901,
        "lon": 65.63451344195026,
        "alt_km": 685.3843737343132,
        "timestamp": "2025-12-13T03:42:10.937101+00:00",
        "meta_object_name": "VNREDSAT 1",
        "meta_object_id": "2013-021B",
        "meta_epoch": "2025-12-12T06:43:16.090176",
        "meta_mean_motion": 14.64922443,
        "meta_eccentricity": 0.0001294,
        "meta_inclination": 97.9371,
        "meta_ra_of_asc_node": 41.5706,
        "meta_arg_of_pericenter": 79.4414,
        "meta_mean_anomaly": 280.6935,
        "meta_ephemeris_type": 0,
        "meta_classification_type": "U",
        "meta_norad_cat_id": 39160,
        "meta_element_set_no": 999,
        "meta_rev_at_epoch": 67292,
        "meta_bstar": 0.00025171225,
        "meta_mean_motion_dot": 1.301e-05,
        "meta_mean_motion_ddot": 0,
        "tle_line1": "1 39160U 13021B   25346.28004734  .00001301  00000+0  25171-3 0  9997",
        "tle_line2": "2 39160  97.9371  41.5706 0001294  79.4414 280.6935 14.64922443672923"
      },
      "geometry": {
        "type": "Point",
        "coordinates": [
          65.63451344195026,
          -70.51339304519901
        ]
      }
    },
    {
      "type": "Feature",
      "properties": {
        "norad_id": 39227,
        "name": "ARIRANG-5 (KOMPSAT-5)",
        "group": "resource",
        "lat": 64.14726208927559,
        "lon": 155.42546229027957,
        "alt_km": 544.2848225715179,
        "timestamp": "2025-12-13T03:42:10.937111+00:00",
        "meta_object_name": "ARIRANG-5 (KOMPSAT-5)",
        "meta_object_id": "2013-042A",
        "meta_epoch": "2025-12-12T08:15:35.540640",
        "meta_mean_motion": 15.0450259,
        "meta_eccentricity": 0.00036613,
        "meta_inclination": 97.6144,
        "meta_ra_of_asc_node": 170.6537,
        "meta_arg_of_pericenter": 56.8295,
        "meta_mean_anomaly": 303.3282,
        "meta_ephemeris_type": 0,
        "meta_classification_type": "U",
        "meta_norad_cat_id": 39227,
        "meta_element_set_no": 999,
        "meta_rev_at_epoch": 67576,
        "meta_bstar": 0.00028218123,
        "meta_mean_motion_dot": 3.891e-05,
        "meta_mean_motion_ddot": 0,
        "tle_line1": "1 39227U 13042A   25346.34416135  .00003891  00000+0  28218-3 0  9994",
        "tle_line2": "2 39227  97.6144 170.6537 0003661  56.8295 303.3282 15.04502590675769"
      },
      "geometry": {
        "type": "Point",
        "coordinates": [
          155.42546229027957,
          64.14726208927559
        ]
      }
    },
    {
      "type": "Feature",
      "properties": {
        "norad_id": 39418,
        "name": "SKYSAT-A",
        "group": "resource",
        "lat": 82.48371309584898,
        "lon": -43.23971698364132,
        "alt_km": 535.6986483539913,
        "timestamp": "2025-12-13T03:42:10.937122+00:00",
        "meta_object_name": "SKYSAT-A",
        "meta_object_id": "2013-066C",
        "meta_epoch": "2025-12-12T01:53:26.618784",
        "meta_mean_motion": 15.11597533,
        "meta_eccentricity": 0.00206482,
        "meta_inclination": 97.4112,
        "meta_ra_of_asc_node": 36.3072,
        "meta_arg_of_pericenter": 238.8896,
        "meta_mean_anomaly": 121.0309,
        "meta_ephemeris_type": 0,
        "meta_classification_type": "U",
        "meta_norad_cat_id": 39418,
        "meta_element_set_no": 999,
        "meta_rev_at_epoch": 66020,
        "meta_bstar": 0.00035227181,
        "meta_mean_motion_dot": 5.948e-05,
        "meta_mean_motion_ddot": 0,
        "tle_line1": "1 39418U 13066C   25346.07878031  .00005948  00000+0  35227-3 0  9992",
        "tle_line2": "2 39418  97.4112  36.3072 0020648 238.8896 121.0309 15.11597533660206"
      },
      "geometry": {
        "type": "Point",
        "coordinates": [
          -43.23971698364132,
          82.48371309584898
        ]
      }
    },
    {
      "type": "Feature",
      "properties": {
        "norad_id": 39419,
        "name": "DUBAISAT-2",
        "group": "resource",
        "lat": -45.621951502891406,
        "lon": 149.8681351686103,
        "alt_km": 548.4734783589975,
        "timestamp": "2025-12-13T03:42:10.937132+00:00",
        "meta_object_name": "DUBAISAT-2",
        "meta_object_id": "2013-066D",
        "meta_epoch": "2025-12-12T06:00:19.170432",
        "meta_mean_motion": 15.08355451,
        "meta_eccentricity": 0.0010765,
        "meta_inclination": 97.4459,
        "meta_ra_of_asc_node": 336.6725,
        "meta_arg_of_pericenter": 323.0585,
        "meta_mean_anomaly": 36.9902,
        "meta_ephemeris_type": 0,
        "meta_classification_type": "U",
        "meta_norad_cat_id": 39419,
        "meta_element_set_no": 999,
        "meta_rev_at_epoch": 65819,
        "meta_bstar": 0.00060145765,
        "meta_mean_motion_dot": 9.299e-05,
        "meta_mean_motion_ddot": 0,
        "tle_line1": "1 39419U 13066D   25346.25022188  .00009299  00000+0  60146-3 0  9998",
        "tle_line2": "2 39419  97.4459 336.6725 0010765 323.0585  36.9902 15.08355451658198"
      },
      "geometry": {
        "type": "Point",
        "coordinates": [
          149.8681351686103,
          -45.621951502891406
        ]
      }
    },
    {
      "type": "Feature",
      "properties": {
        "norad_id": 39574,
        "name": "GPM-CORE",
        "group": "resource",
        "lat": 49.452648506015805,
        "lon": -115.60583468802398,
        "alt_km": 434.09323400726316,
        "timestamp": "2025-12-13T03:42:10.937142+00:00",
        "meta_object_name": "GPM-CORE",
        "meta_object_id": "2014-009C",
        "meta_epoch": "2025-12-12T04:08:45.508416",
        "meta_mean_motion": 15.44450966,
        "meta_eccentricity": 0.00098424,
        "meta_inclination": 64.9735,
        "meta_ra_of_asc_node": 214.5785,
        "meta_arg_of_pericenter": 245.0797,
        "meta_mean_anomaly": 114.9321,
        "meta_ephemeris_type": 0,
        "meta_classification_type": "U",
        "meta_norad_cat_id": 39574,
        "meta_element_set_no": 999,
        "meta_rev_at_epoch": 66892,
        "meta_bstar": 0.00025125398,
        "meta_mean_motion_dot": 0.00011477,
        "meta_mean_motion_ddot": 0,
        "tle_line1": "1 39574U 14009C   25346.17274894  .00011477  00000+0  25125-3 0  9991",
        "tle_line2": "2 39574  64.9735 214.5785 0009842 245.0797 114.9321 15.44450966668929"
      },
      "geometry": {
        "type": "Point",
        "coordinates": [
          -115.60583468802398,
          49.452648506015805
        ]
      }
    },
    {
      "type": "Feature",
      "properties": {
        "norad_id": 39634,
        "name": "SENTINEL-1A",
        "group": "resource",
        "lat": 39.0548973301679,
        "lon": 179.09183029522148,
        "alt_km": 692.3404342737731,
        "timestamp": "2025-12-13T03:42:10.937152+00:00",
        "meta_object_name": "SENTINEL-1A",
        "meta_object_id": "2014-016A",
        "meta_epoch": "2025-12-12T07:18:48.342816",
        "meta_mean_motion": 14.59200248,
        "meta_eccentricity": 0.00012343,
        "meta_inclination": 98.1805,
        "meta_ra_of_asc_node": 351.5522,
        "meta_arg_of_pericenter": 84.2396,
        "meta_mean_anomaly": 275.8945,
        "meta_ephemeris_type": 0,
        "meta_classification_type": "U",
        "meta_norad_cat_id": 39634,
        "meta_element_set_no": 999,
        "meta_rev_at_epoch": 62276,
        "meta_bstar": 7.2054053e-05,
        "meta_mean_motion_dot": 2.94e-06,
        "meta_mean_motion_ddot": 0,
        "tle_line1": "1 39634U 14016A   25346.30472619  .00000294  00000+0  72054-4 0  9995",
        "tle_line2": "2 39634  98.1805 351.5522 0001234  84.2396 275.8945 14.59200248622761"
      },
      "geometry": {
        "type": "Point",
        "coordinates": [
          179.09183029522148,
          39.0548973301679
        ]
      }
    },
    {
      "type": "Feature",
      "properties": {
        "norad_id": 39731,
        "name": "KAZEOSAT 1",
        "group": "resource",
        "lat": 81.62649974930325,
        "lon": -26.465773189429292,
        "alt_km": 743.4345191861257,
        "timestamp": "2025-12-13T03:42:10.937162+00:00",
        "meta_object_name": "KAZEOSAT 1",
        "meta_object_id": "2014-024A",
        "meta_epoch": "2025-12-12T07:18:26.438688",
        "meta_mean_motion": 14.42062824,
        "meta_eccentricity": 0.00011082,
        "meta_inclination": 98.3429,
        "meta_ra_of_asc_node": 58.2211,
        "meta_arg_of_pericenter": 94.593,
        "meta_mean_anomaly": 265.5387,
        "meta_ephemeris_type": 0,
        "meta_classification_type": "U",
        "meta_norad_cat_id": 39731,
        "meta_element_set_no": 999,
        "meta_rev_at_epoch": 61162,
        "meta_bstar": 0.00017673183,
        "meta_mean_motion_dot": 5.38e-06,
        "meta_mean_motion_ddot": 0,
        "tle_line1": "1 39731U 14024A   25346.30447267  .00000538  00000+0  17673-3 0  9999",
        "tle_line2": "2 39731  98.3429  58.2211 0001108  94.5930 265.5387 14.42062824611624"
      },
      "geometry": {
        "type": "Point",
        "coordinates": [
          -26.465773189429292,
          81.62649974930325
        ]
      }
    }
  ]
}